KUIPER-00044            
1 64505U 25134F   25308.75241779  .00004846  00000+0  66358-3 0  9997
2 64505  51.8986  79.0634 0011946 218.4626 141.5486 14.79951249 21382
KUIPER-00046            
1 64506U 25134G   25308.75656895  .00004900  00000+0  67527-3 0  9997
2 64506  51.8984  75.5147 0011935 226.6620 133.3349 14.79653204 21437
KUIPER-00047            
1 64507U 25134H   25309.00003472 -.00058788  00000+0 -49301-2 0  9998
2 64507  51.8844  47.2268 0008509 234.8487 217.8796 14.98082439  5868
KUIPER-00048            
1 64508U 25134J   25309.00003472 -.00022868  00000+0 -22752-2 0  9990
2 64508  51.9123  47.1546 0001528 336.3310 318.2503 14.90957513  4985
KUIPER-00049            
1 64509U 25134K   25308.70371611  .00000951  00000+0  15385-3 0  9992
2 64509  51.9007  61.7360 0002974 216.5722 143.5037 14.79934101 21621
KUIPER-00050            
1 64510U 25134L   25308.64110406  .00007400  00000+0  67486-3 0  9995
2 64510  51.8909  59.9036 0004861 257.4463 102.5962 14.95981583 21643
KUIPER-00051            
1 64511U 25134M   25308.70644621  .00005081  00000+0  69498-3 0  9992
2 64511  51.9027  59.2869 0002339 234.0489 126.0257 14.79933186 21657
KUIPER-00052            
1 64512U 25134N   25308.45869396  .00209641  00000+0  20991-2 0  9995
2 64512  51.8709  28.5833 0006051 285.3264  74.7065 15.64328108 22057
