<?xml version="1.0" encoding="UTF-8"?>
<ndm xmlns:xsi="http://www.w3.org/2001/XMLSchema-instance" xsi:noNamespaceSchemaLocation="https://sanaregistry.org/r/ndmxml_unqualified/ndmxml-2.0.0-master-2.0.xsd">
<omm id="CCSDS_OMM_VERS" version="2.0">
<header><CREATION_DATE/><ORIGINATOR/></header><body><segment><metadata><OBJECT_NAME>KUIPER-00044</OBJECT_NAME><OBJECT_ID>2025-134F</OBJECT_ID><CENTER_NAME>EARTH</CENTER_NAME><REF_FRAME>TEME</REF_FRAME><TIME_SYSTEM>UTC</TIME_SYSTEM><MEAN_ELEMENT_THEORY>SGP4</MEAN_ELEMENT_THEORY></metadata><data><meanElements><EPOCH>2025-11-04T18:03:28.897056</EPOCH><MEAN_MOTION>14.79951249</MEAN_MOTION><ECCENTRICITY>.00119466</ECCENTRICITY><INCLINATION>51.8986</INCLINATION><RA_OF_ASC_NODE>79.0634</RA_OF_ASC_NODE><ARG_OF_PERICENTER>218.4626</ARG_OF_PERICENTER><MEAN_ANOMALY>141.5486</MEAN_ANOMALY></meanElements><tleParameters><EPHEMERIS_TYPE>0</EPHEMERIS_TYPE><CLASSIFICATION_TYPE>U</CLASSIFICATION_TYPE><NORAD_CAT_ID>64505</NORAD_CAT_ID><ELEMENT_SET_NO>999</ELEMENT_SET_NO><REV_AT_EPOCH>2138</REV_AT_EPOCH><BSTAR>.66358038E-3</BSTAR><MEAN_MOTION_DOT>.4846E-4</MEAN_MOTION_DOT><MEAN_MOTION_DDOT>0</MEAN_MOTION_DDOT></tleParameters></data></segment></body></omm>
<omm id="CCSDS_OMM_VERS" version="2.0">
<header><CREATION_DATE/><ORIGINATOR/></header><body><segment><metadata><OBJECT_NAME>KUIPER-00046</OBJECT_NAME><OBJECT_ID>2025-134G</OBJECT_ID><CENTER_NAME>EARTH</CENTER_NAME><REF_FRAME>TEME</REF_FRAME><TIME_SYSTEM>UTC</TIME_SYSTEM><MEAN_ELEMENT_THEORY>SGP4</MEAN_ELEMENT_THEORY></metadata><data><meanElements><EPOCH>2025-11-04T18:09:27.557280</EPOCH><MEAN_MOTION>14.79653204</MEAN_MOTION><ECCENTRICITY>.00119356</ECCENTRICITY><INCLINATION>51.8984</INCLINATION><RA_OF_ASC_NODE>75.5147</RA_OF_ASC_NODE><ARG_OF_PERICENTER>226.6620</ARG_OF_PERICENTER><MEAN_ANOMALY>133.3349</MEAN_ANOMALY></meanElements><tleParameters><EPHEMERIS_TYPE>0</EPHEMERIS_TYPE><CLASSIFICATION_TYPE>U</CLASSIFICATION_TYPE><NORAD_CAT_ID>64506</NORAD_CAT_ID><ELEMENT_SET_NO>999</ELEMENT_SET_NO><REV_AT_EPOCH>2143</REV_AT_EPOCH><BSTAR>.67527343E-3</BSTAR><MEAN_MOTION_DOT>.49E-4</MEAN_MOTION_DOT><MEAN_MOTION_DDOT>0</MEAN_MOTION_DDOT></tleParameters></data></segment></body></omm>
<omm id="CCSDS_OMM_VERS" version="2.0">
<header><CREATION_DATE/><ORIGINATOR/></header><body><segment><metadata><OBJECT_NAME>KUIPER-00047</OBJECT_NAME><OBJECT_ID>2025-134H</OBJECT_ID><CENTER_NAME>EARTH</CENTER_NAME><REF_FRAME>TEME</REF_FRAME><TIME_SYSTEM>UTC</TIME_SYSTEM><MEAN_ELEMENT_THEORY>SGP4</MEAN_ELEMENT_THEORY></metadata><data><meanElements><EPOCH>2025-11-05T00:00:02.999808</EPOCH><MEAN_MOTION>14.98082439</MEAN_MOTION><ECCENTRICITY>.00085093</ECCENTRICITY><INCLINATION>51.8844</INCLINATION><RA_OF_ASC_NODE>47.2268</RA_OF_ASC_NODE><ARG_OF_PERICENTER>234.8487</ARG_OF_PERICENTER><MEAN_ANOMALY>217.8796</MEAN_ANOMALY></meanElements><tleParameters><EPHEMERIS_TYPE>0</EPHEMERIS_TYPE><CLASSIFICATION_TYPE>U</CLASSIFICATION_TYPE><NORAD_CAT_ID>64507</NORAD_CAT_ID><ELEMENT_SET_NO>999</ELEMENT_SET_NO><REV_AT_EPOCH>586</REV_AT_EPOCH><BSTAR>-.4930138E-2</BSTAR><MEAN_MOTION_DOT>-.58788E-3</MEAN_MOTION_DOT><MEAN_MOTION_DDOT>0</MEAN_MOTION_DDOT></tleParameters></data></segment></body></omm>
<omm id="CCSDS_OMM_VERS" version="2.0">
<header><CREATION_DATE/><ORIGINATOR/></header><body><segment><metadata><OBJECT_NAME>KUIPER-00048</OBJECT_NAME><OBJECT_ID>2025-134J</OBJECT_ID><CENTER_NAME>EARTH</CENTER_NAME><REF_FRAME>TEME</REF_FRAME><TIME_SYSTEM>UTC</TIME_SYSTEM><MEAN_ELEMENT_THEORY>SGP4</MEAN_ELEMENT_THEORY></metadata><data><meanElements><EPOCH>2025-11-05T00:00:02.999808</EPOCH><MEAN_MOTION>14.90957513</MEAN_MOTION><ECCENTRICITY>.00015289</ECCENTRICITY><INCLINATION>51.9123</INCLINATION><RA_OF_ASC_NODE>47.1546</RA_OF_ASC_NODE><ARG_OF_PERICENTER>336.3310</ARG_OF_PERICENTER><MEAN_ANOMALY>318.2503</MEAN_ANOMALY></meanElements><tleParameters><EPHEMERIS_TYPE>0</EPHEMERIS_TYPE><CLASSIFICATION_TYPE>U</CLASSIFICATION_TYPE><NORAD_CAT_ID>64508</NORAD_CAT_ID><ELEMENT_SET_NO>999</ELEMENT_SET_NO><REV_AT_EPOCH>498</REV_AT_EPOCH><BSTAR>-.22752291E-2</BSTAR><MEAN_MOTION_DOT>-.22868E-3</MEAN_MOTION_DOT><MEAN_MOTION_DDOT>0</MEAN_MOTION_DDOT></tleParameters></data></segment></body></omm>
<omm id="CCSDS_OMM_VERS" version="2.0">
<header><CREATION_DATE/><ORIGINATOR/></header><body><segment><metadata><OBJECT_NAME>KUIPER-00049</OBJECT_NAME><OBJECT_ID>2025-134K</OBJECT_ID><CENTER_NAME>EARTH</CENTER_NAME><REF_FRAME>TEME</REF_FRAME><TIME_SYSTEM>UTC</TIME_SYSTEM><MEAN_ELEMENT_THEORY>SGP4</MEAN_ELEMENT_THEORY></metadata><data><meanElements><EPOCH>2025-11-04T16:53:21.071904</EPOCH><MEAN_MOTION>14.79934101</MEAN_MOTION><ECCENTRICITY>.00029746</ECCENTRICITY><INCLINATION>51.9007</INCLINATION><RA_OF_ASC_NODE>61.7360</RA_OF_ASC_NODE><ARG_OF_PERICENTER>216.5722</ARG_OF_PERICENTER><MEAN_ANOMALY>143.5037</MEAN_ANOMALY></meanElements><tleParameters><EPHEMERIS_TYPE>0</EPHEMERIS_TYPE><CLASSIFICATION_TYPE>U</CLASSIFICATION_TYPE><NORAD_CAT_ID>64509</NORAD_CAT_ID><ELEMENT_SET_NO>999</ELEMENT_SET_NO><REV_AT_EPOCH>2162</REV_AT_EPOCH><BSTAR>.15385126E-3</BSTAR><MEAN_MOTION_DOT>.951E-5</MEAN_MOTION_DOT><MEAN_MOTION_DDOT>0</MEAN_MOTION_DDOT></tleParameters></data></segment></body></omm>
<omm id="CCSDS_OMM_VERS" version="2.0">
<header><CREATION_DATE/><ORIGINATOR/></header><body><segment><metadata><OBJECT_NAME>KUIPER-00050</OBJECT_NAME><OBJECT_ID>2025-134L</OBJECT_ID><CENTER_NAME>EARTH</CENTER_NAME><REF_FRAME>TEME</REF_FRAME><TIME_SYSTEM>UTC</TIME_SYSTEM><MEAN_ELEMENT_THEORY>SGP4</MEAN_ELEMENT_THEORY></metadata><data><meanElements><EPOCH>2025-11-04T15:23:11.390784</EPOCH><MEAN_MOTION>14.95981583</MEAN_MOTION><ECCENTRICITY>.00048618</ECCENTRICITY><INCLINATION>51.8909</INCLINATION><RA_OF_ASC_NODE>59.9036</RA_OF_ASC_NODE><ARG_OF_PERICENTER>257.4463</ARG_OF_PERICENTER><MEAN_ANOMALY>102.5962</MEAN_ANOMALY></meanElements><tleParameters><EPHEMERIS_TYPE>0</EPHEMERIS_TYPE><CLASSIFICATION_TYPE>U</CLASSIFICATION_TYPE><NORAD_CAT_ID>64510</NORAD_CAT_ID><ELEMENT_SET_NO>999</ELEMENT_SET_NO><REV_AT_EPOCH>2164</REV_AT_EPOCH><BSTAR>.67485994E-3</BSTAR><MEAN_MOTION_DOT>.74E-4</MEAN_MOTION_DOT><MEAN_MOTION_DDOT>0</MEAN_MOTION_DDOT></tleParameters></data></segment></body></omm>
<omm id="CCSDS_OMM_VERS" version="2.0">
<header><CREATION_DATE/><ORIGINATOR/></header><body><segment><metadata><OBJECT_NAME>KUIPER-00051</OBJECT_NAME><OBJECT_ID>2025-134M</OBJECT_ID><CENTER_NAME>EARTH</CENTER_NAME><REF_FRAME>TEME</REF_FRAME><TIME_SYSTEM>UTC</TIME_SYSTEM><MEAN_ELEMENT_THEORY>SGP4</MEAN_ELEMENT_THEORY></metadata><data><meanElements><EPOCH>2025-11-04T16:57:16.952544</EPOCH><MEAN_MOTION>14.79933186</MEAN_MOTION><ECCENTRICITY>.00023394</ECCENTRICITY><INCLINATION>51.9027</INCLINATION><RA_OF_ASC_NODE>59.2869</RA_OF_ASC_NODE><ARG_OF_PERICENTER>234.0489</ARG_OF_PERICENTER><MEAN_ANOMALY>126.0257</MEAN_ANOMALY></meanElements><tleParameters><EPHEMERIS_TYPE>0</EPHEMERIS_TYPE><CLASSIFICATION_TYPE>U</CLASSIFICATION_TYPE><NORAD_CAT_ID>64511</NORAD_CAT_ID><ELEMENT_SET_NO>999</ELEMENT_SET_NO><REV_AT_EPOCH>2165</REV_AT_EPOCH><BSTAR>.69498021E-3</BSTAR><MEAN_MOTION_DOT>.5081E-4</MEAN_MOTION_DOT><MEAN_MOTION_DDOT>0</MEAN_MOTION_DDOT></tleParameters></data></segment></body></omm>
<omm id="CCSDS_OMM_VERS" version="2.0">
<header><CREATION_DATE/><ORIGINATOR/></header><body><segment><metadata><OBJECT_NAME>KUIPER-00052</OBJECT_NAME><OBJECT_ID>2025-134N</OBJECT_ID><CENTER_NAME>EARTH</CENTER_NAME><REF_FRAME>TEME</REF_FRAME><TIME_SYSTEM>UTC</TIME_SYSTEM><MEAN_ELEMENT_THEORY>SGP4</MEAN_ELEMENT_THEORY></metadata><data><meanElements><EPOCH>2025-11-04T11:00:31.158144</EPOCH><MEAN_MOTION>15.64328108</MEAN_MOTION><ECCENTRICITY>.00060514</ECCENTRICITY><INCLINATION>51.8709</INCLINATION><RA_OF_ASC_NODE>28.5833</RA_OF_ASC_NODE><ARG_OF_PERICENTER>285.3264</ARG_OF_PERICENTER><MEAN_ANOMALY>74.7065</MEAN_ANOMALY></meanElements><tleParameters><EPHEMERIS_TYPE>0</EPHEMERIS_TYPE><CLASSIFICATION_TYPE>U</CLASSIFICATION_TYPE><NORAD_CAT_ID>64512</NORAD_CAT_ID><ELEMENT_SET_NO>999</ELEMENT_SET_NO><REV_AT_EPOCH>2205</REV_AT_EPOCH><BSTAR>.20990852E-2</BSTAR><MEAN_MOTION_DOT>.209641E-2</MEAN_MOTION_DOT><MEAN_MOTION_DDOT>0</MEAN_MOTION_DDOT></tleParameters></data></segment></body></omm>

</ndm>
